{
    "CCSDS_OMM_VERS": "3.0",
    "COMMENT": "GENERATED VIA SPACE-TRACK.ORG API",
    "CREATION_DATE": "2025-05-23T06:46:19",
    "ORIGINATOR": "18 SPCS",
    "OBJECT_NAME": "NAVSTAR 72 (USA 258)",
    "OBJECT_ID": "2014-068A",
    "CENTER_NAME": "EARTH",
    "REF_FRAME": "TEME",
    "TIME_SYSTEM": "UTC",
    "MEAN_ELEMENT_THEORY": "SGP4",
    "EPOCH": "2025-05-23T00:45:55.330560",
    "MEAN_MOTION": "2.00552107",
    "ECCENTRICITY": "0.00603710",
    "INCLINATION": "56.7029",
    "RA_OF_ASC_NODE": "46.0252",
    "ARG_OF_PERICENTER": "65.8308",
    "MEAN_ANOMALY": "294.8196",
    "EPHEMERIS_TYPE": "0",
    "CLASSIFICATION_TYPE": "U",
    "NORAD_CAT_ID": "40294",
    "ELEMENT_SET_NO": "999",
    "REV_AT_EPOCH": "7737",
    "BSTAR": "0.00000000000000",
    "MEAN_MOTION_DOT": "-0.00000070",
    "MEAN_MOTION_DDOT": "0.0000000000000",
    "SEMIMAJOR_AXIS": "26561.363",
    "PERIOD": "718.018",
    "APOAPSIS": "20343.581",
    "PERIAPSIS": "20022.874",
    "OBJECT_TYPE": "PAYLOAD",
    "RCS_SIZE": "LARGE",
    "COUNTRY_CODE": "US",
    "LAUNCH_DATE": "2014-10-29",
    "SITE": "AFETR",
    "DECAY_DATE": null,
    "FILE": "4736738",
    "GP_ID": "288169165",
    "TLE_LINE0": "0 NAVSTAR 72 (USA 258)",
    "TLE_LINE1": "1 40294U 14068A   25143.03189040 -.00000070  00000-0  00000+0 0  9995",
    "TLE_LINE2": "2 40294  56.7029  46.0252 0060371  65.8308 294.8196  2.00552107 77371"
}